CUTE-1 (CO-55)          
1 27844U 03031E   26193.81805928  .00000160  00000+0  88191-4 0  9991
2 27844  98.6742 202.0549 0010788 108.7901 251.4449 14.24350634195326
CUBESAT XI-IV (CO-57)   
1 27848U 03031J   26193.53826736  .00000128  00000+0  75348-4 0  9998
2 27848  98.6772 201.4707 0010448 126.3839 233.8305 14.23633637194983
CUBESAT XI-V            
1 28895U 05043F   26193.88190763  .00000741  00000+0  12440-3 0  9992
2 28895  98.3010 350.0479 0015185 122.0632 238.2052 14.72699028105533
CUTE-1.7+APD II (CO-65) 
1 32785U 08021C   26194.16632127  .00003195  00000+0  20242-3 0  9996
2 32785  97.8287 176.1316 0007211 307.6464  52.4109 15.09688770989114
CANX-2                  
1 32790U 08021H   26193.93996051  .00002078  00000+0  14782-3 0  9996
2 32790  97.8655 174.2233 0008940 326.6946  33.3716 15.05798688988681
SEEDS II (CO-66)        
1 32791U 08021J   26193.91536891  .00012605  00000+0  39018-3 0  9993
2 32791  97.7523 193.0586 0002827 161.8962 198.2380 15.33618022991237
SWISSCUBE               
1 35932U 09051B   26193.20904170  .00000502  00000+0  10865-3 0  9990
2 35932  98.4012 101.5313 0007715 127.0520 233.1388 14.62527427892815
BEESAT-1                
1 35933U 09051C   26193.71071439  .00000393  00000+0  88659-4 0  9995
2 35933  98.3939 101.6234 0005984 136.3628 223.8047 14.61759519892911
ITUPSAT1                
1 35935U 09051E   26192.97035851  .00000388  00000+0  90106-4 0  9996
2 35935  98.4023 100.0372 0007861 152.4089 207.7529 14.60475983892353
TISAT 1                 
1 36799U 10035E   26193.84816697  .00014671  00000+0  46724-3 0  9997
2 36799  98.0705 142.6943 0004322 124.5558 235.6090 15.32676084871637
STRAND-1                
1 39090U 13009E   26193.46783720  .00000149  00000+0  64299-4 0  9999
2 39090  98.3932  13.0813 0009262 148.5894 211.5848 14.37177891700690
BRITE-AUSTRIA           
1 39091U 13009F   26193.97923961  .00000089  00000+0  44937-4 0  9999
2 39091  98.4006  12.7781 0010641 156.9749 203.1916 14.36551984700757
NEE-01 PEGASO           
1 39151U 13018B   26193.98892981  .00001057  00000+0  10536-3 0  9997
2 39151  98.1249 338.9978 0013696  80.7615 279.5152 14.93783715714554
POPACS 2                
1 39269U 13055E   26194.20595882  .00013879 -91286-6  22645-3 0  9997
2 39269  80.9920 114.4009 0415091 110.2648 254.3692 14.91964314667091
POPACS 3                
1 39270U 13055F   26193.47007032  .00008784  00000+0  20828-3 0  9998
2 39270  80.9985 201.7622 0549132 352.9872   6.3847 14.56613622642233
ZACUBE-1 (TSHEPISOSAT)  
1 39417U 13066B   26193.93520538  .00001450  00000+0  11530-3 0  9998
2 39417  97.8010 156.3996 0043901 162.4582 197.8170 15.01323430684592
WNISAT-1                
1 39423U 13066H   26193.87696687  .00000666  00000+0  12890-3 0  9995
2 39423  97.7231 341.2138 0163743 150.5792 210.4750 14.58116952670472
TRITON-1                
1 39427U 13066M   26194.15952507  .00000701  00000+0  89471-4 0  9997
2 39427  97.8228 103.3738 0090397 148.6807 211.9835 14.81789601677936
GOMX-1                  
1 39430U 13066Q   26194.19664862  .00000796  00000+0  12610-3 0  9993
2 39430  97.6476  33.0183 0128474 354.6506   5.3320 14.69539835673735
CUBEBUG-2 (LO-74)       
1 39440U 13066AA  26193.85098882  .00001863  00000+0  17551-3 0  9994
2 39440  97.8909 142.9428 0055957 303.3134  56.2734 14.93957370680821
NEE-02 KRYSAOR          
1 39441U 13066AB  26194.05427681  .00001387  00000+0  15640-3 0  9999
2 39441  97.8895 133.0870 0065595 346.3487  13.5953 14.86734512680041
FUNCUBE-1 (AO-73)       
1 39444U 13066AE  26194.17185029  .00003608  00000+0  22375-3 0  9993
2 39444  97.8287 166.1678 0038087 114.1842 246.3375 15.09803151683582
UWE-3                   
1 39446U 13066AG  26193.81399014  .00001937  00000+0  16916-3 0  9993
2 39446  97.8701 150.0656 0047510 232.8178 126.8701 14.97190018681416
BRITE-CA1 (TORONTO)     
1 40020U 14033L   26194.19620617  .00000545  00000+0  89509-4 0  9999
2 40020  97.9769 322.6494 0078299 192.6738 167.2503 14.72720200646045
DUCHIFAT-1              
1 40021U 14033M   26193.68571963  .00110396  00000+0  89146-3 0  9994
2 40021  98.0440 256.5455 0002165 257.9613 102.1405 15.70510170659744
NANOSATC-BR1            
1 40024U 14033Q   26193.55007700  .00010975  00000+0  35481-3 0  9991
2 40024  98.0714 228.1994 0005323 102.2683 257.9153 15.32271898657861
QB50P1                  
1 40025U 14033R   26193.52077436  .00005256  00000+0  25721-3 0  9994
2 40025  98.0964 206.4495 0010219 132.7489 227.4606 15.18640557656877
QB50P2                  
1 40032U 14033Y   26193.91930168  .00004130  00000+0  22191-3 0  9993
2 40032  98.0758 192.4084 0009350  90.0706 270.1596 15.15489609656561
PERSEUS-M2              
1 40037U 14033AD  26194.15659988  .00001700  00000+0  15850-3 0  9997
2 40037  97.9968 145.2283 0010704 205.8506 154.2180 14.95588578654665
PERSEUS-M1              
1 40039U 14033AF  26194.12748135  .00001324  00000+0  12428-3 0  9999
2 40039  97.9652 138.6876 0010796 203.5717 156.5010 14.95710869654512
